{
  "type": "FeatureCollection",
  "features": [
    {
      "type": "Feature",
      "properties": {
        "norad_id": 34079,
        "name": "IRIDIUM 33 DEB",
        "group": "iridium-33-debris",
        "lat": 28.612667963917357,
        "lon": -170.39601023478463,
        "alt_km": 620.2901344341526,
        "timestamp": "2025-12-06T07:31:40.620742+00:00",
        "meta_object_name": "IRIDIUM 33 DEB",
        "meta_object_id": "1997-051CN",
        "meta_epoch": "2025-12-05T06:56:17.293920",
        "meta_mean_motion": 14.83236119,
        "meta_eccentricity": 0.0006424,
        "meta_inclination": 86.3773,
        "meta_ra_of_asc_node": 12.0502,
        "meta_arg_of_pericenter": 31.2199,
        "meta_mean_anomaly": 52.5956,
        "meta_ephemeris_type": 0,
        "meta_classification_type": "U",
        "meta_norad_cat_id": 34079,
        "meta_element_set_no": 999,
        "meta_rev_at_epoch": 88867,
        "meta_bstar": 0.0028000599,
        "meta_mean_motion_dot": 0.00022961,
        "meta_mean_motion_ddot": 0,
        "tle_line1": "1 34079U 97051CN  25339.28908905  .00022961  00000+0  28001-2 0  9990",
        "tle_line2": "2 34079  86.3773  12.0502 0006424  31.2199  52.5956 14.83236119888677"
      },
      "geometry": {
        "type": "Point",
        "coordinates": [
          -170.39601023478463,
          28.612667963917357
        ]
      }
    },
    {
      "type": "Feature",
      "properties": {
        "norad_id": 34088,
        "name": "IRIDIUM 33 DEB",
        "group": "iridium-33-debris",
        "lat": 63.25111738039655,
        "lon": 40.880680613243634,
        "alt_km": 591.6188398163404,
        "timestamp": "2025-12-06T07:31:40.620752+00:00",
        "meta_object_name": "IRIDIUM 33 DEB",
        "meta_object_id": "1997-051CX",
        "meta_epoch": "2025-12-05T04:05:51.557568",
        "meta_mean_motion": 14.9082378,
        "meta_eccentricity": 0.00051614,
        "meta_inclination": 86.3855,
        "meta_ra_of_asc_node": 34.2004,
        "meta_arg_of_pericenter": 205.4288,
        "meta_mean_anomaly": 207.9213,
        "meta_ephemeris_type": 0,
        "meta_classification_type": "U",
        "meta_norad_cat_id": 34088,
        "meta_element_set_no": 999,
        "meta_rev_at_epoch": 88629,
        "meta_bstar": 0.0051676027,
        "meta_mean_motion_dot": 0.00051194,
        "meta_mean_motion_ddot": 0,
        "tle_line1": "1 34088U 97051CX  25339.17073562  .00051194  00000+0  51676-2 0  9994",
        "tle_line2": "2 34088  86.3855  34.2004 0005161 205.4288 207.9213 14.90823780886294"
      },
      "geometry": {
        "type": "Point",
        "coordinates": [
          40.880680613243634,
          63.25111738039655
        ]
      }
    },
    {
      "type": "Feature",
      "properties": {
        "norad_id": 34091,
        "name": "IRIDIUM 33 DEB",
        "group": "iridium-33-debris",
        "lat": 66.2866221253318,
        "lon": -118.5979366296323,
        "alt_km": 640.7545648606592,
        "timestamp": "2025-12-06T07:31:40.620762+00:00",
        "meta_object_name": "IRIDIUM 33 DEB",
        "meta_object_id": "1997-051DA",
        "meta_epoch": "2025-12-05T06:41:37.054176",
        "meta_mean_motion": 14.80945261,
        "meta_eccentricity": 0.00330143,
        "meta_inclination": 86.3426,
        "meta_ra_of_asc_node": 70.2484,
        "meta_arg_of_pericenter": 320.2388,
        "meta_mean_anomaly": 39.6413,
        "meta_ephemeris_type": 0,
        "meta_classification_type": "U",
        "meta_norad_cat_id": 34091,
        "meta_element_set_no": 999,
        "meta_rev_at_epoch": 87756,
        "meta_bstar": 0.0089040101,
        "meta_mean_motion_dot": 0.00070148,
        "meta_mean_motion_ddot": 0,
        "tle_line1": "1 34091U 97051DA  25339.27890109  .00070148  00000+0  89040-2 0  9999",
        "tle_line2": "2 34091  86.3426  70.2484 0033014 320.2388  39.6413 14.80945261877569"
      },
      "geometry": {
        "type": "Point",
        "coordinates": [
          -118.5979366296323,
          66.2866221253318
        ]
      }
    },
    {
      "type": "Feature",
      "properties": {
        "norad_id": 34097,
        "name": "IRIDIUM 33 DEB",
        "group": "iridium-33-debris",
        "lat": -0.21643308806883627,
        "lon": 4.2303267148032635,
        "alt_km": 724.083857108345,
        "timestamp": "2025-12-06T07:31:40.620773+00:00",
        "meta_object_name": "IRIDIUM 33 DEB",
        "meta_object_id": "1997-051DG",
        "meta_epoch": "2025-12-04T12:00:30.087072",
        "meta_mean_motion": 14.34680478,
        "meta_eccentricity": 0.008354,
        "meta_inclination": 86.2003,
        "meta_ra_of_asc_node": 5.0446,
        "meta_arg_of_pericenter": 28.9801,
        "meta_mean_anomaly": 331.5995,
        "meta_ephemeris_type": 0,
        "meta_classification_type": "U",
        "meta_norad_cat_id": 34097,
        "meta_element_set_no": 999,
        "meta_rev_at_epoch": 87001,
        "meta_bstar": 0.0028898,
        "meta_mean_motion_dot": 8.526e-05,
        "meta_mean_motion_ddot": 0,
        "tle_line1": "1 34097U 97051DG  25338.50034823  .00008526  00000+0  28898-2 0  9998",
        "tle_line2": "2 34097  86.2003   5.0446 0083540  28.9801 331.5995 14.34680478870017"
      },
      "geometry": {
        "type": "Point",
        "coordinates": [
          4.2303267148032635,
          -0.21643308806883627
        ]
      }
    },
    {
      "type": "Feature",
      "properties": {
        "norad_id": 34145,
        "name": "IRIDIUM 33 DEB",
        "group": "iridium-33-debris",
        "lat": 83.15118649856839,
        "lon": 121.89901099717231,
        "alt_km": 706.2525138643487,
        "timestamp": "2025-12-06T07:31:40.620798+00:00",
        "meta_object_name": "IRIDIUM 33 DEB",
        "meta_object_id": "1997-051DY",
        "meta_epoch": "2025-12-05T04:26:41.563392",
        "meta_mean_motion": 14.42206288,
        "meta_eccentricity": 0.00554127,
        "meta_inclination": 86.2108,
        "meta_ra_of_asc_node": 335.8913,
        "meta_arg_of_pericenter": 117.8237,
        "meta_mean_anomaly": 242.8595,
        "meta_ephemeris_type": 0,
        "meta_classification_type": "U",
        "meta_norad_cat_id": 34145,
        "meta_element_set_no": 999,
        "meta_rev_at_epoch": 87529,
        "meta_bstar": 0.0019340372,
        "meta_mean_motion_dot": 6.509e-05,
        "meta_mean_motion_ddot": 0,
        "tle_line1": "1 34145U 97051DY  25339.18520328  .00006509  00000+0  19340-2 0  9998",
        "tle_line2": "2 34145  86.2108 335.8913 0055412 117.8237 242.8595 14.42206288875295"
      },
      "geometry": {
        "type": "Point",
        "coordinates": [
          121.89901099717231,
          83.15118649856839
        ]
      }
    },
    {
      "type": "Feature",
      "properties": {
        "norad_id": 34146,
        "name": "IRIDIUM 33 DEB",
        "group": "iridium-33-debris",
        "lat": -62.20140532656674,
        "lon": -14.442451210558724,
        "alt_km": 725.4265641077263,
        "timestamp": "2025-12-06T07:31:40.620811+00:00",
        "meta_object_name": "IRIDIUM 33 DEB",
        "meta_object_id": "1997-051DZ",
        "meta_epoch": "2025-12-05T02:15:54.786240",
        "meta_mean_motion": 14.48966521,
        "meta_eccentricity": 0.00250306,
        "meta_inclination": 86.2833,
        "meta_ra_of_asc_node": 353.1782,
        "meta_arg_of_pericenter": 248.9862,
        "meta_mean_anomaly": 172.3351,
        "meta_ephemeris_type": 0,
        "meta_classification_type": "U",
        "meta_norad_cat_id": 34146,
        "meta_element_set_no": 999,
        "meta_rev_at_epoch": 87996,
        "meta_bstar": 0.0020615973,
        "meta_mean_motion_dot": 7.863e-05,
        "meta_mean_motion_ddot": 0,
        "tle_line1": "1 34146U 97051DZ  25339.09438410  .00007863  00000+0  20616-2 0  9991",
        "tle_line2": "2 34146  86.2833 353.1782 0025030 248.9862 172.3351 14.48966521879965"
      },
      "geometry": {
        "type": "Point",
        "coordinates": [
          -14.442451210558724,
          -62.20140532656674
        ]
      }
    },
    {
      "type": "Feature",
      "properties": {
        "norad_id": 34159,
        "name": "IRIDIUM 33 DEB",
        "group": "iridium-33-debris",
        "lat": -74.90333704103553,
        "lon": -115.33724857255221,
        "alt_km": 760.2519148118427,
        "timestamp": "2025-12-06T07:31:40.620823+00:00",
        "meta_object_name": "IRIDIUM 33 DEB",
        "meta_object_id": "1997-051EN",
        "meta_epoch": "2025-12-05T05:17:59.452800",
        "meta_mean_motion": 14.38465082,
        "meta_eccentricity": 0.00263292,
        "meta_inclination": 86.3516,
        "meta_ra_of_asc_node": 51.447,
        "meta_arg_of_pericenter": 314.2734,
        "meta_mean_anomaly": 45.6304,
        "meta_ephemeris_type": 0,
        "meta_classification_type": "U",
        "meta_norad_cat_id": 34159,
        "meta_element_set_no": 999,
        "meta_rev_at_epoch": 87851,
        "meta_bstar": 0.00075268064,
        "meta_mean_motion_dot": 2.325e-05,
        "meta_mean_motion_ddot": 0,
        "tle_line1": "1 34159U 97051EN  25339.22082700  .00002325  00000+0  75268-3 0  9999",
        "tle_line2": "2 34159  86.3516  51.4470 0026329 314.2734  45.6304 14.38465082878512"
      },
      "geometry": {
        "type": "Point",
        "coordinates": [
          -115.33724857255221,
          -74.90333704103553
        ]
      }
    }
  ]
}